0 COSMOS 2251 DEB
1 37531U 93036BNL 13282.40454080  .00001728  00000-0  68956-3 0  1617
2 37531 074.0261 186.3594 0065558 258.1442 101.2307 14.28120160214929
0 COSMOS 2251 DEB
1 37531U 93036BNL 13284.08574178  .00001677  00000-0  66921-3 0  1628
2 37531 074.0262 183.3104 0065801 255.3622 104.0214 14.28125876215168
0 COSMOS 2251 DEB
1 37531U 93036BNL 13287.02782730  .00001662  00000-0  66318-3 0  1635
2 37531 074.0271 177.9766 0065845 248.7255 110.6855 14.28135595215586
0 COSMOS 2251 DEB
1 37531U 93036BNL 13290.03994344  .00002345  00000-0  93077-3 0  1648
2 37531 074.0347 172.5193 0065760 240.4575 119.1239 14.28155524216018
0 COSMOS 2251 DEB
1 37531U 93036BNL 13291.09064666  .00002336  00000-0  92683-3 0  1653
2 37531 074.0196 170.6072 0066512 250.9825 108.3258 14.28158935216161
0 COSMOS 2251 DEB
1 37531U 93036BNL 13292.98196099  .00002254  00000-0  89524-3 0  1668
2 37531 074.0452 167.2228 0065024 229.5405 130.0915 14.28168172216430
0 COSMOS 2251 DEB
1 37531U 93036BNL 13293.33218418  .00002251  00000-0  89460-3 0  1675
2 37531 074.0250 166.5420 0064308 234.9098 124.5777 14.28169069216489
0 COSMOS 2251 DEB
1 37531U 93036BNL 13295.29352375  .00001990  00000-0  79195-3 0  1687
2 37531 074.0264 162.9848 0064134 231.4685 128.0706 14.28177242216763
